[{"OBJECT_NAME":"TOMORROW-S2","OBJECT_ID":"2024-149T","EPOCH":"2026-03-09T18:02:42.746496","MEAN_MOTION":15.30674935,"ECCENTRICITY":0.0001648,"INCLINATION":97.3857,"RA_OF_ASC_NODE":150.0385,"ARG_OF_PERICENTER":234.3331,"MEAN_ANOMALY":125.7757,"EPHEMERIS_TYPE":0,"CLASSIFICATION_TYPE":"U","NORAD_CAT_ID":60485,"ELEMENT_SET_NO":999,"REV_AT_EPOCH":8686,"BSTAR":0.00027683033,"MEAN_MOTION_DOT":8.133e-5,"MEAN_MOTION_DDOT":0},{"OBJECT_NAME":"STARLINK-36198","OBJECT_ID":"2025-303E","EPOCH":"2026-03-09T16:00:03.000096","MEAN_MOTION":15.27564344,"ECCENTRICITY":0.0001517,"INCLINATION":43.0009,"RA_OF_ASC_NODE":311.2223,"ARG_OF_PERICENTER":270.5874,"MEAN_ANOMALY":221.4743,"EPHEMERIS_TYPE":0,"CLASSIFICATION_TYPE":"U","NORAD_CAT_ID":67167,"ELEMENT_SET_NO":999,"REV_AT_EPOCH":581,"BSTAR":0.0014632686,"MEAN_MOTION_DOT":0.00040204,"MEAN_MOTION_DDOT":0}]
